{
  "type": "FeatureCollection",
  "name": "sturgeon_edna_sampling_areas",
  "features": [
    {
      "type": "Feature",
      "id": 1,
      "geometry": {
        "type": "Point",
        "coordinates": [
          29.34399,
          40.80391
        ]
      },
      "properties": {
        "area_id": 1,
        "area_name": "Tuzla, Sea of Marmara",
        "water_type": "marine",
        "country": "Turkey",
        "sampling_months": "Apr-Nov",
        "coverage_type": "full_8_month",
        "species": [
          "A_stellatus",
          "A_gueldenstaedtii"
        ]
      }
    },
    {
      "type": "Feature",
      "id": 2,
      "geometry": {
        "type": "Point",
        "coordinates": [
          29.07676,
          41.13931
        ]
      },
      "properties": {
        "area_id": 2,
        "area_name": "Bosphorus",
        "water_type": "marine",
        "country": "Turkey",
        "sampling_months": "Apr-Nov",
        "coverage_type": "full_8_month",
        "species": [
          "A_stellatus"
        ]
      }
    },
    {
      "type": "Feature",
      "id": 3,
      "geometry": {
        "type": "Point",
        "coordinates": [
          27.765796,
          42.2883
        ]
      },
      "properties": {
        "area_id": 3,
        "area_name": "Primorsko",
        "water_type": "marine",
        "country": "Bulgaria",
        "sampling_months": "Apr-Nov",
        "coverage_type": "full_8_month",
        "species": [
          "A_stellatus",
          "A_gueldenstaedtii"
        ]
      }
    },
    {
      "type": "Feature",
      "id": 4,
      "geometry": {
        "type": "Point",
        "coordinates": [
          29.07087,
          44.1053
        ]
      },
      "properties": {
        "area_id": 4,
        "area_name": "Constanţa offshore",
        "water_type": "marine",
        "country": "Romania",
        "sampling_months": "Aug",
        "coverage_type": "partial_rotating",
        "species": [
          "A_stellatus",
          "A_gueldenstaedtii"
        ]
      }
    },
    {
      "type": "Feature",
      "id": 5,
      "geometry": {
        "type": "Point",
        "coordinates": [
          29.612344,
          44.499536
        ]
      },
      "properties": {
        "area_id": 5,
        "area_name": "Gura Portitei offshore",
        "water_type": "marine",
        "country": "Romania",
        "sampling_months": "June",
        "coverage_type": "partial_rotating",
        "species": [
          "A_stellatus",
          "A_gueldenstaedtii"
        ]
      }
    },
    {
      "type": "Feature",
      "id": 6,
      "geometry": {
        "type": "Point",
        "coordinates": [
          30.06229,
          44.78663
        ]
      },
      "properties": {
        "area_id": 6,
        "area_name": "Sf Gheorghe offshore",
        "water_type": "marine",
        "country": "Romania",
        "sampling_months": "June",
        "coverage_type": "partial_rotating",
        "species": [
          "A_stellatus",
          "A_gueldenstaedtii"
        ]
      }
    },
    {
      "type": "Feature",
      "id": 7,
      "geometry": {
        "type": "Point",
        "coordinates": [
          30.000711,
          45.074619
        ]
      },
      "properties": {
        "area_id": 7,
        "area_name": "Sulina offshore",
        "water_type": "marine",
        "country": "Romania",
        "sampling_months": "June",
        "coverage_type": "partial_rotating",
        "species": [
          "A_stellatus",
          "A_gueldenstaedtii"
        ]
      }
    },
    {
      "type": "Feature",
      "id": 8,
      "geometry": {
        "type": "Point",
        "coordinates": [
          27.01322,
          44.140153
        ]
      },
      "properties": {
        "area_id": 8,
        "area_name": "Ostrov branch and km 429",
        "water_type": "freshwater",
        "country": "Romania",
        "sampling_months": "Apr, Sep, Nov",
        "coverage_type": "partial_rotating",
        "species": [
          "A_stellatus",
          "A_gueldenstaedtii"
        ]
      }
    },
    {
      "type": "Feature",
      "id": 9,
      "geometry": {
        "type": "Point",
        "coordinates": [
          27.893064,
          44.499853
        ]
      },
      "properties": {
        "area_id": 9,
        "area_name": "Danube km 248 and 304",
        "water_type": "freshwater",
        "country": "Romania",
        "sampling_months": "Nov",
        "coverage_type": "partial_rotating",
        "species": [
          "A_stellatus",
          "A_gueldenstaedtii"
        ]
      }
    },
    {
      "type": "Feature",
      "id": 10,
      "geometry": {
        "type": "Point",
        "coordinates": [
          28.389111,
          45.306708
        ]
      },
      "properties": {
        "area_id": 10,
        "area_name": "Lower Prut and neighbouring areas (km 112 and 159 miles 42,  48 and 73)",
        "water_type": "freshwater",
        "country": "Moldova/Romania",
        "sampling_months": "May-Nov",
        "coverage_type": "partial_rotating",
        "species": [
          "A_stellatus",
          "A_gueldenstaedtii"
        ]
      }
    },
    {
      "type": "Feature",
      "id": 11,
      "geometry": {
        "type": "Point",
        "coordinates": [
          29.463533,
          44.968411
        ]
      },
      "properties": {
        "area_id": 11,
        "area_name": "Sf Gheorghe channel",
        "water_type": "freshwater",
        "country": "Romania",
        "sampling_months": "Jun, Sep",
        "coverage_type": "partial_rotating",
        "species": [
          "A_stellatus",
          "A_gueldenstaedtii"
        ]
      }
    },
    {
      "type": "Feature",
      "id": 12,
      "geometry": {
        "type": "Point",
        "coordinates": [
          29.726158,
          45.163597
        ]
      },
      "properties": {
        "area_id": 12,
        "area_name": "Sulina channel",
        "water_type": "freshwater",
        "country": "Romania",
        "sampling_months": "Sep",
        "coverage_type": "partial_rotating",
        "species": [
          "A_stellatus",
          "A_gueldenstaedtii",
          "A_ruthenus"
        ]
      }
    },
    {
      "type": "Feature",
      "id": 13,
      "geometry": {
        "type": "Point",
        "coordinates": [
          29.54370422,
          45.41107248
        ]
      },
      "properties": {
        "area_id": 13,
        "area_name": "Danube km 19",
        "water_type": "freshwater",
        "country": "Ukraine",
        "sampling_months": "Apr-Nov",
        "coverage_type": "full_8_month",
        "species": [
          "A_stellatus",
          "A_gueldenstaedtii",
          "A_ruthenus",
          "A_nudiventris"
        ]
      }
    },
    {
      "type": "Feature",
      "id": 14,
      "geometry": {
        "type": "Point",
        "coordinates": [
          35.15421221,
          47.7713851
        ]
      },
      "properties": {
        "area_id": 14,
        "area_name": "Dnieper River",
        "water_type": "freshwater",
        "country": "Ukraine",
        "sampling_months": "Apr-Nov",
        "coverage_type": "full_8_month",
        "species": [
          "A_stellatus",
          "A_gueldenstaedtii",
          "A_nudiventris"
        ]
      }
    }
  ]
}